PHISAT 2                
1 60470U 24149C   26068.78834181  .00008925  00000+0  31421-3 0  9996
2 60470  97.3806 148.6498 0001175 168.6230 191.5037 15.29548631 86792
STARLINK-34350          
1 64276U 25120W   26068.52757654  .00025470  00000+0  86916-3 0  9998
2 64276  53.1590 117.2785 0001216  86.7800 273.3340 15.30198014 43898
